{
  "type": "FeatureCollection",
  "features": [
    {
      "type": "Feature",
      "properties": {
        "norad_id": 38833,
        "name": "GPS BIIF-3  (PRN 24)",
        "group": "gps-ops",
        "lat": 35.87912297327739,
        "lon": -176.709464228807,
        "alt_km": 19730.91664194332,
        "timestamp": "2025-12-18T21:31:51.260006+00:00",
        "meta_object_name": "GPS BIIF-3  (PRN 24)",
        "meta_object_id": "2012-053A",
        "meta_epoch": "2025-12-17T20:05:06.382752",
        "meta_mean_motion": 2.00565081,
        "meta_eccentricity": 0.0176009,
        "meta_inclination": 53.5589,
        "meta_ra_of_asc_node": 151.0299,
        "meta_arg_of_pericenter": 64.0689,
        "meta_mean_anomaly": 297.7246,
        "meta_ephemeris_type": 0,
        "meta_classification_type": "U",
        "meta_norad_cat_id": 38833,
        "meta_element_set_no": 999,
        "meta_rev_at_epoch": 9580,
        "meta_bstar": 0,
        "meta_mean_motion_dot": 6.4e-07,
        "meta_mean_motion_ddot": 0,
        "tle_line1": "1 38833U 12053A   25351.83687943  .00000064  00000+0  00000+0 0  9998",
        "tle_line2": "2 38833  53.5589 151.0299 0176009  64.0689 297.7246  2.00565081 95801"
      },
      "geometry": {
        "type": "Point",
        "coordinates": [
          -176.709464228807,
          35.87912297327739
        ]
      }
    },
    {
      "type": "Feature",
      "properties": {
        "norad_id": 39166,
        "name": "GPS BIIF-4  (PRN 27)",
        "group": "gps-ops",
        "lat": 26.759529453607332,
        "lon": 75.36221653803909,
        "alt_km": 20224.587344773197,
        "timestamp": "2025-12-18T21:31:51.260017+00:00",
        "meta_object_name": "GPS BIIF-4  (PRN 27)",
        "meta_object_id": "2013-023A",
        "meta_epoch": "2025-12-15T04:59:33.811872",
        "meta_mean_motion": 2.00564736,
        "meta_eccentricity": 0.01378529,
        "meta_inclination": 54.65,
        "meta_ra_of_asc_node": 276.4679,
        "meta_arg_of_pericenter": 48.4851,
        "meta_mean_anomaly": 312.7012,
        "meta_ephemeris_type": 0,
        "meta_classification_type": "U",
        "meta_norad_cat_id": 39166,
        "meta_element_set_no": 999,
        "meta_rev_at_epoch": 9219,
        "meta_bstar": 0,
        "meta_mean_motion_dot": -6.8e-07,
        "meta_mean_motion_ddot": 0,
        "tle_line1": "1 39166U 13023A   25349.20803023 -.00000068  00000+0  00000+0 0  9998",
        "tle_line2": "2 39166  54.6500 276.4679 0137852  48.4851 312.7012  2.00564736 92194"
      },
      "geometry": {
        "type": "Point",
        "coordinates": [
          75.36221653803909,
          26.759529453607332
        ]
      }
    },
    {
      "type": "Feature",
      "properties": {
        "norad_id": 39533,
        "name": "GPS BIIF-5  (PRN 30)",
        "group": "gps-ops",
        "lat": 26.141988388071653,
        "lon": -44.54890723720699,
        "alt_km": 20139.27514414968,
        "timestamp": "2025-12-18T21:31:51.260028+00:00",
        "meta_object_name": "GPS BIIF-5  (PRN 30)",
        "meta_object_id": "2014-008A",
        "meta_epoch": "2025-12-17T04:42:21.782016",
        "meta_mean_motion": 2.00574699,
        "meta_eccentricity": 0.00793343,
        "meta_inclination": 53.632,
        "meta_ra_of_asc_node": 156.7429,
        "meta_arg_of_pericenter": 226.5757,
        "meta_mean_anomaly": 132.7662,
        "meta_ephemeris_type": 0,
        "meta_classification_type": "U",
        "meta_norad_cat_id": 39533,
        "meta_element_set_no": 999,
        "meta_rev_at_epoch": 8603,
        "meta_bstar": 0,
        "meta_mean_motion_dot": 7.8e-07,
        "meta_mean_motion_ddot": 0,
        "tle_line1": "1 39533U 14008A   25351.19608544  .00000078  00000+0  00000+0 0  9992",
        "tle_line2": "2 39533  53.6320 156.7429 0079334 226.5757 132.7662  2.00574699 86034"
      },
      "geometry": {
        "type": "Point",
        "coordinates": [
          -44.54890723720699,
          26.141988388071653
        ]
      }
    },
    {
      "type": "Feature",
      "properties": {
        "norad_id": 39741,
        "name": "GPS BIIF-6  (PRN 06)",
        "group": "gps-ops",
        "lat": -44.429301912531194,
        "lon": -61.80649583823291,
        "alt_km": 20087.066142667452,
        "timestamp": "2025-12-18T21:31:51.260039+00:00",
        "meta_object_name": "GPS BIIF-6  (PRN 06)",
        "meta_object_id": "2014-026A",
        "meta_epoch": "2025-12-17T23:28:49.261152",
        "meta_mean_motion": 2.00561085,
        "meta_eccentricity": 0.00393157,
        "meta_inclination": 56.5816,
        "meta_ra_of_asc_node": 338.5726,
        "meta_arg_of_pericenter": 318.9878,
        "meta_mean_anomaly": 40.7245,
        "meta_ephemeris_type": 0,
        "meta_classification_type": "U",
        "meta_norad_cat_id": 39741,
        "meta_element_set_no": 999,
        "meta_rev_at_epoch": 8490,
        "meta_bstar": 0,
        "meta_mean_motion_dot": -8.4e-07,
        "meta_mean_motion_ddot": 0,
        "tle_line1": "1 39741U 14026A   25351.97834793 -.00000084  00000+0  00000+0 0  9994",
        "tle_line2": "2 39741  56.5816 338.5726 0039315 318.9878  40.7245  2.00561085 84906"
      },
      "geometry": {
        "type": "Point",
        "coordinates": [
          -61.80649583823291,
          -44.429301912531194
        ]
      }
    },
    {
      "type": "Feature",
      "properties": {
        "norad_id": 40105,
        "name": "GPS BIIF-7  (PRN 09)",
        "group": "gps-ops",
        "lat": -46.035218753485026,
        "lon": -38.361340134979756,
        "alt_km": 20231.092071573352,
        "timestamp": "2025-12-18T21:31:51.260051+00:00",
        "meta_object_name": "GPS BIIF-7  (PRN 09)",
        "meta_object_id": "2014-045A",
        "meta_epoch": "2025-12-16T13:40:35.692320",
        "meta_mean_motion": 2.00572829,
        "meta_eccentricity": 0.00326078,
        "meta_inclination": 55.2314,
        "meta_ra_of_asc_node": 95.7461,
        "meta_arg_of_pericenter": 119.9914,
        "meta_mean_anomaly": 240.3146,
        "meta_ephemeris_type": 0,
        "meta_classification_type": "U",
        "meta_norad_cat_id": 40105,
        "meta_element_set_no": 999,
        "meta_rev_at_epoch": 8241,
        "meta_bstar": 0,
        "meta_mean_motion_dot": -4.2e-07,
        "meta_mean_motion_ddot": 0,
        "tle_line1": "1 40105U 14045A   25350.56985755 -.00000042  00000+0  00000+0 0  9994",
        "tle_line2": "2 40105  55.2314  95.7461 0032607 119.9914 240.3146  2.00572829 82416"
      },
      "geometry": {
        "type": "Point",
        "coordinates": [
          -38.361340134979756,
          -46.035218753485026
        ]
      }
    },
    {
      "type": "Feature",
      "properties": {
        "norad_id": 40294,
        "name": "GPS BIIF-8  (PRN 03)",
        "group": "gps-ops",
        "lat": -26.015177934086847,
        "lon": 19.35150119485584,
        "alt_km": 20214.395446054412,
        "timestamp": "2025-12-18T21:31:51.260062+00:00",
        "meta_object_name": "GPS BIIF-8  (PRN 03)",
        "meta_object_id": "2014-068A",
        "meta_epoch": "2025-12-16T22:42:57.008160",
        "meta_mean_motion": 2.00565217,
        "meta_eccentricity": 0.00607888,
        "meta_inclination": 56.8609,
        "meta_ra_of_asc_node": 37.9832,
        "meta_arg_of_pericenter": 69.0803,
        "meta_mean_anomaly": 291.6294,
        "meta_ephemeris_type": 0,
        "meta_classification_type": "U",
        "meta_norad_cat_id": 40294,
        "meta_element_set_no": 999,
        "meta_rev_at_epoch": 8155,
        "meta_bstar": 0,
        "meta_mean_motion_dot": -7.8e-07,
        "meta_mean_motion_ddot": 0,
        "tle_line1": "1 40294U 14068A   25350.94649315 -.00000078  00000+0  00000+0 0  9998",
        "tle_line2": "2 40294  56.8609  37.9832 0060788  69.0803 291.6294  2.00565217 81552"
      },
      "geometry": {
        "type": "Point",
        "coordinates": [
          19.35150119485584,
          -26.015177934086847
        ]
      }
    },
    {
      "type": "Feature",
      "properties": {
        "norad_id": 40534,
        "name": "GPS BIIF-9  (PRN 26)",
        "group": "gps-ops",
        "lat": -41.02227787488306,
        "lon": 72.28111556074181,
        "alt_km": 20460.610736421968,
        "timestamp": "2025-12-18T21:31:51.260090+00:00",
        "meta_object_name": "GPS BIIF-9  (PRN 26)",
        "meta_object_id": "2015-013A",
        "meta_epoch": "2025-12-18T01:46:00.112224",
        "meta_mean_motion": 2.00562333,
        "meta_eccentricity": 0.01072627,
        "meta_inclination": 53.197,
        "meta_ra_of_asc_node": 211.6693,
        "meta_arg_of_pericenter": 38.6083,
        "meta_mean_anomaly": 322.2485,
        "meta_ephemeris_type": 0,
        "meta_classification_type": "U",
        "meta_norad_cat_id": 40534,
        "meta_element_set_no": 999,
        "meta_rev_at_epoch": 7819,
        "meta_bstar": 0,
        "meta_mean_motion_dot": 8.6e-07,
        "meta_mean_motion_ddot": 0,
        "tle_line1": "1 40534U 15013A   25352.07361241  .00000086  00000+0  00000+0 0  9999",
        "tle_line2": "2 40534  53.1970 211.6693 0107262  38.6083 322.2485  2.00562333 78192"
      },
      "geometry": {
        "type": "Point",
        "coordinates": [
          72.28111556074181,
          -41.02227787488306
        ]
      }
    }
  ]
}